KUIPER-00629            
1 69783U 26151W   26203.83335648 -.01576952  00000+0 -67392-1 0  9995
2 69783  51.8822 143.9298 0006105 189.2309 191.5252 15.25475257  3518
KUIPER-00631            
1 69784U 26151X   26203.83335648 -.01144446  00000+0 -49128-1 0  9992
2 69784  51.8786 143.8826 0007931 189.2917 201.1062 15.25318951  1306
KUIPER-00634            
1 69785U 26151Y   26203.85182022  .00034348  00000+0  91368-3 0  9992
2 69785  51.8770 143.3085 0003679 157.8950 202.2196 15.37899454  3199
KUIPER-00639            
1 69786U 26151Z   26203.81347877  .00017192  00000+0  51491-3 0  9991
2 69786  51.8692 143.7854 0009724 185.7008 174.3868 15.34572576  3186
KUIPER-00641            
1 69787U 26151AA  26203.30046594 -.00029618  00000+0 -87727-3 0  9997
2 69787  51.8685 146.3427 0011607 193.7001 166.3671 15.33988190  3106
KUIPER-00644            
1 69788U 26151AB  26203.93314066 -.00014160  00000+0 -38080-3 0  9993
2 69788  51.8734 143.0965 0007802 186.8258 173.2624 15.36512987  3196
KUIPER-00646            
1 69789U 26151AC  26203.81054104  .00015972  00000+0  46821-3 0  9997
2 69789  51.8703 143.7680 0009798 190.8345 169.2432 15.35308454  3184
KUIPER-00647            
1 69790U 26151AD  26203.81719260  .00025863  00000+0  76475-3 0  9998
2 69790  51.8664 143.8059 0010122 182.3706 177.7233 15.34705962  3180
KUIPER-00662            
1 69791U 26151AE  26203.83335648 -.00692300  00000+0 -27897-1 0  9995
2 69791  51.8779 143.8590 0008617 178.1934 190.8161 15.26882228  2200
